{
    "links": {
        "self": "http://www.neowsapp.com/rest/v1/neo/3608786?api_key=iIulBulltgU6a56xZRHN4H3l9WmuAYTsLGpBGhQ2"
    },
    "id": "3608786",
    "neo_reference_id": "3608786",
    "name": "(2012 SM8)",
    "designation": "2012 SM8",
    "nasa_jpl_url": "http://ssd.jpl.nasa.gov/sbdb.cgi?sstr=3608786",
    "absolute_magnitude_h": 26.3,
    "estimated_diameter": {
        "kilometers": {
            "estimated_diameter_min": 0.0146067964,
            "estimated_diameter_max": 0.0326617897
        },
        "meters": {
            "estimated_diameter_min": 14.6067964271,
            "estimated_diameter_max": 32.6617897446
        },
        "miles": {
            "estimated_diameter_min": 0.0090762397,
            "estimated_diameter_max": 0.020295089
        },
        "feet": {
            "estimated_diameter_min": 47.92256199,
            "estimated_diameter_max": 107.1581062656
        }
    },
    "is_potentially_hazardous_asteroid": false,
    "close_approach_data": [
        {
            "close_approach_date": "2010-12-07",
            "close_approach_date_full": "2010-Dec-07 17:08",
            "epoch_date_close_approach": 1291741680000,
            "relative_velocity": {
                "kilometers_per_second": "18.3744763779",
                "kilometers_per_hour": "66148.1149605505",
                "miles_per_hour": "41101.8662097932"
            },
            "miss_distance": {
                "astronomical": "0.471121266",
                "lunar": "183.266172474",
                "kilometers": "70478737.90530342",
                "miles": "43793457.004770396"
            },
            "orbiting_body": "Earth"
        },
        {
            "close_approach_date": "2012-09-26",
            "close_approach_date_full": "2012-Sep-26 14:59",
            "epoch_date_close_approach": 1348671540000,
            "relative_velocity": {
                "kilometers_per_second": "5.5772513382",
                "kilometers_per_hour": "20078.1048174495",
                "miles_per_hour": "12475.7535183758"
            },
            "miss_distance": {
                "astronomical": "0.0376750392",
                "lunar": "14.6555902488",
                "kilometers": "5636105.616486504",
                "miles": "3502113.6349175952"
            },
            "orbiting_body": "Earth"
        }
    ],
    "orbital_data": {
        "orbit_id": "9",
        "orbit_determination_date": "2017-04-06 08:48:56",
        "first_observation_date": "2012-09-18",
        "last_observation_date": "2012-09-24",
        "data_arc_in_days": 6,
        "observations_used": 52,
        "orbit_uncertainty": "8",
        "minimum_orbit_intersection": ".0319823",
        "jupiter_tisserand_invariant": "4.395",
        "epoch_osculation": "2456190.5",
        "eccentricity": ".3398678490016869",
        "semi_major_axis": "1.541824865019504",
        "inclination": "4.703354432553338",
        "ascending_node_longitude": "177.0500621128632",
        "orbital_period": "699.2798189128181",
        "perihelion_distance": "1.017808164608009",
        "perihelion_argument": "207.8845379588521",
        "aphelion_distance": "2.065841565430999",
        "perihelion_time": "2456215.484112897002",
        "mean_anomaly": "347.1377946286162",
        "mean_motion": ".5148153718488515",
        "equinox": "J2000",
        "orbit_class": {
            "orbit_class_type": "AMO",
            "orbit_class_description": "Near-Earth asteroid orbits similar to that of 1221 Amor",
            "orbit_class_range": "1.017 AU < q (perihelion) < 1.3 AU"
        }
    },
    "is_sentry_object": false
}